NORAD_CAT_ID,OBJECT_NAME,OBJECT_TYPE,EPOCH,MEAN_MOTION,ECCENTRICITY,INCLINATION,RA_OF_ASC_NODE,ARG_OF_PERICENTER,MEAN_ANOMALY,BSTAR,MEAN_MOTION_DOT,MEAN_MOTION_DDOT,TLE_LINE0,TLE_LINE1,TLE_LINE2,SEMIMAJOR_AXIS,PERIOD,APOGEE,PERIGEE,DECAYED
49750.0,STARLINK-3236,PAYLOAD,2023-02-18 10:37:59,15.08106296,0.0001818,53.216,115.6634,100.9265,259.1932,-0.0059395,-0.00091759,0.0,0 STARLINK-3236,1 49750U 21115AC  23049.44304663 -.00091759  00000-0 -59395-2 0  9999,2 49750  53.2160 115.6634 0001818 100.9265 259.1932 15.08106296 68284,6920.124,95.484,543.247,540.731,0.0
49750.0,STARLINK-3236,PAYLOAD,2023-02-18 21:46:04,15.08043826,0.0001692,53.2161,113.5832,112.4049,247.7122,-0.00059577,-9.552e-05,0.0,0 STARLINK-3236,1 49750U 21115AC  23049.90699237 -.00009552  00000-0 -59577-3 0  9997,2 49750  53.2161 113.5832 0001692 112.4049 247.7122 15.08043826 68351,6920.315,95.488,543.351,541.009,0.0
49750.0,STARLINK-3236,PAYLOAD,2023-02-19 14:00:01,15.0875932,0.0001557,53.215,110.5501,85.7643,349.0956,0.00799,0.00128924,0.0,0 STARLINK-3236,1 49750U 21115AC  23050.58334491  .00128924  00000-0  79900-2 0  9995,2 49750  53.2150 110.5501 0001557  85.7643 349.0956 15.08759320  1307,6918.127,95.443,541.069,538.915,0.0
49750.0,STARLINK-3236,PAYLOAD,2023-02-19 16:00:00,15.0881498,0.0001529,53.2148,110.1758,84.4961,83.2319,0.0029564,0.00047045,0.0,0 STARLINK-3236,1 49750U 21115AC  23050.66667824  .00047045  00000-0  29564-2 0  9998,2 49750  53.2148 110.1758 0001529  84.4961  83.2319 15.08814980 68466,6917.957,95.439,540.88,538.764,0.0
49750.0,STARLINK-3236,PAYLOAD,2023-02-20 08:44:52,15.08774308,0.0001647,53.2149,107.0416,70.101,290.016,0.0039588,0.00063168,0.0,0 STARLINK-3236,1 49750U 21115AC  23051.36449227  .00063168  00000-0  39588-2 0  9992,2 49750  53.2149 107.0416 0001647  70.1010 290.0160 15.08774308 68574,6918.081,95.442,541.086,538.807,0.0
49750.0,STARLINK-3236,PAYLOAD,2023-02-20 10:20:15,15.08816455,0.0001642,53.2159,106.7468,96.0405,264.0774,0.0037125,0.00059255,0.0,0 STARLINK-3236,1 49750U 21115AC  23051.43072961  .00059255  00000-0  37125-2 0  9994,2 49750  53.2159 106.7468 0001642  96.0405 264.0774 15.08816455 68581,6917.952,95.439,540.953,538.681,0.0
49750.0,STARLINK-3236,PAYLOAD,2023-02-20 15:06:23,15.08846351,0.0001539,53.2147,105.8517,96.0606,264.0562,0.0029853,0.00047552,0.0,0 STARLINK-3236,1 49750U 21115AC  23051.62944123  .00047552  00000-0  29853-2 0  9999,2 49750  53.2147 105.8517 0001539  96.0606 264.0562 15.08846351 68618,6917.861,95.437,540.791,538.661,0.0
49750.0,STARLINK-3236,PAYLOAD,2023-02-21 02:14:05,15.08847257,0.0001868,53.2155,103.7711,85.6746,274.446,0.0011881,0.00018675,0.0,0 STARLINK-3236,1 49750U 21115AC  23052.09312220  .00018675  00000-0  11881-2 0  9994,2 49750  53.2155 103.7711 0001868  85.6746 274.4460 15.08847257 68689,6917.858,95.437,541.015,538.431,0.0
49750.0,STARLINK-3236,PAYLOAD,2023-02-21 10:11:01,15.08857685,0.0001539,53.2155,102.2838,99.7819,260.3347,0.0017935,0.00028385,0.0,0 STARLINK-3236,1 49750U 21115AC  23052.42431899  .00028385  00000-0  17935-2 0  9990,2 49750  53.2155 102.2838 0001539  99.7819 260.3347 15.08857685 67622,6917.826,95.436,540.756,538.627,0.0
49750.0,STARLINK-3236,PAYLOAD,2023-02-21 19:43:20,15.08851576,0.0001799,53.2155,100.4996,89.7094,270.4105,0.0010481,0.00016437,0.0,0 STARLINK-3236,1 49750U 21115AC  23052.82175995  .00016437  00000-0  10481-2 0  9990,2 49750  53.2155 100.4996 0001799  89.7094 270.4105 15.08851576 68795,6917.845,95.437,540.955,538.465,0.0
49750.0,STARLINK-3236,PAYLOAD,2023-02-22 06:00:00,15.08866174,0.0001424,53.2149,98.5765,93.8902,73.6685,-0.0024066,-0.00038412,0.0,0 STARLINK-3236,1 49750U 21115AC  23053.25001157 -.00038412  00000-0 -24066-2 0  9999,2 49750  53.2149  98.5765 0001424  93.8902  73.6685 15.08866174 68851,6917.8,95.436,540.65,538.68,0.0
49750.0,STARLINK-3236,PAYLOAD,2023-02-22 14:00:01,15.0880292,0.0001262,53.2144,97.0811,84.9986,94.1805,0.0019907,0.00031504,0.0,0 STARLINK-3236,1 49750U 21115AC  23053.58334491  .00031504  00000-0  19907-2 0  9996,2 49750  53.2144  97.0811 0001262  84.9986  94.1805 15.08802920  1303,6917.994,95.44,540.732,538.986,0.0
49750.0,STARLINK-3236,PAYLOAD,2023-02-22 19:34:07,15.08835357,0.0001669,53.2143,96.0391,91.1443,268.9741,0.00022888,3.356e-05,0.0,0 STARLINK-3236,1 49750U 21115AC  23053.81536295  .00003356  00000-0  22888-3 0  9995,2 49750  53.2143  96.0391 0001669  91.1443 268.9741 15.08835357 67833,6917.895,95.438,540.914,538.605,0.0
49750.0,STARLINK-3236,PAYLOAD,2023-02-23 01:55:39,15.08837561,0.0001626,53.2141,94.8499,92.7772,267.3406,0.00015281,2.145e-05,0.0,0 STARLINK-3236,1 49750U 21115AC  23054.08032326  .00002145  00000-0  15281-3 0  9995,2 49750  53.2141  94.8499 0001626  92.7772 267.3406 15.08837561 68988,6917.888,95.438,540.878,538.628,0.0
49750.0,STARLINK-3236,PAYLOAD,2023-02-23 09:52:35,15.08835673,0.0001558,53.2146,93.3626,91.4561,268.661,3.2755e-05,2.33e-06,0.0,0 STARLINK-3236,1 49750U 21115AC  23054.41152536  .00000233  00000-0  32755-4 0  9990,2 49750  53.2146  93.3626 0001558  91.4561 268.6610 15.08835673 67921,6917.894,95.438,540.836,538.681,0.0
49750.0,STARLINK-3236,PAYLOAD,2023-02-24 06:32:36,15.08845542,0.0001586,53.2142,89.4959,91.9281,268.1893,0.00030172,4.518e-05,0.0,0 STARLINK-3236,1 49750U 21115AC  23055.27264403  .00004518  00000-0  30172-3 0  9992,2 49750  53.2142  89.4959 0001586  91.9281 268.1893 15.08845542 69169,6917.863,95.437,540.826,538.631,0.0
49750.0,STARLINK-3236,PAYLOAD,2023-02-24 09:43:22,15.08848793,0.0001557,53.214,88.9011,88.2817,271.8354,0.00033656,5.074e-05,0.0,0 STARLINK-3236,1 49750U 21115AC  23055.40512269  .00005074  00000-0  33656-3 0  9991,2 49750  53.2140  88.9011 0001557  88.2817 271.8354 15.08848793 68075,6917.854,95.437,540.796,538.641,0.0
49750.0,STARLINK-3236,PAYLOAD,2023-02-24 19:15:41,15.08837187,0.0001598,53.2145,87.1171,85.1752,274.9422,0.00010265,1.346e-05,0.0,0 STARLINK-3236,1 49750U 21115AC  23055.80256808  .00001346  00000-0  10265-3 0  9998,2 49750  53.2145  87.1171 0001598  85.1752 274.9422 15.08837187 68139,6917.889,95.438,540.859,538.649,0.0
49750.0,STARLINK-3236,PAYLOAD,2023-02-24 22:26:28,15.08834663,0.0001608,53.2136,86.5215,83.7139,276.4037,9.5164e-05,1.227e-05,0.0,0 STARLINK-3236,1 49750U 21115AC  23055.93504983  .00001227  00000-0  95164-4 0  9992,2 49750  53.2136  86.5215 0001608  83.7139 276.4037 15.08834663 69266,6917.897,95.438,540.874,538.649,0.0
49750.0,STARLINK-3236,PAYLOAD,2023-02-25 09:34:10,15.08831665,0.0001331,53.215,84.4403,89.2938,270.8207,6.8879e-05,8.08e-06,0.0,0 STARLINK-3236,1 49750U 21115AC  23056.39873516  .00000808  00000-0  68879-4 0  9991,2 49750  53.2150  84.4403 0001331  89.2938 270.8207 15.08831665 68220,6917.906,95.438,540.692,538.85,0.0
49750.0,STARLINK-3236,PAYLOAD,2023-02-25 20:41:52,15.08842993,0.0001259,53.215,82.3584,89.7052,270.4084,0.00035788,5.413e-05,0.0,0 STARLINK-3236,1 49750U 21115AC  23056.86241181  .00005413  00000-0  35788-3 0  9999,2 49750  53.2150  82.3584 0001259  89.7052 270.4084 15.08842993 68290,6917.871,95.437,540.607,538.865,0.0
49750.0,STARLINK-3236,PAYLOAD,2023-02-26 04:38:47,15.08864232,0.0001327,53.2149,80.8717,84.1241,275.9902,0.001589,0.00025108,0.0,0 STARLINK-3236,1 49750U 21115AC  23057.19361062  .00025108  00000-0  15890-2 0  9991,2 49750  53.2149  80.8717 0001327  84.1241 275.9902 15.08864232 69452,6917.806,95.436,540.589,538.753,0.0
49750.0,STARLINK-3236,PAYLOAD,2023-02-26 11:00:20,15.0887956,0.0001355,53.215,79.6825,82.7205,277.3941,0.0017623,0.00027901,0.0,0 STARLINK-3236,1 49750U 21115AC  23057.45856486  .00027901  00000-0  17623-2 0  9998,2 49750  53.2150  79.6825 0001355  82.7205 277.3941 15.08879560 68385,6917.759,95.435,540.562,538.687,0.0
49750.0,STARLINK-3236,PAYLOAD,2023-02-26 20:32:38,15.08851076,0.000151,53.2141,77.8966,112.7493,247.3659,0.00027398,4.076e-05,0.0,0 STARLINK-3236,1 49750U 21115AC  23057.85600457  .00004076  00000-0  27398-3 0  9996,2 49750  53.2141  77.8966 0001510 112.7493 247.3659 15.08851076 69552,6917.847,95.437,540.756,538.667,0.0
49750.0,STARLINK-3236,PAYLOAD,2023-02-27 01:18:48,15.08844752,0.0001364,53.2151,77.0059,92.2786,267.8362,4.4438e-05,4.19e-06,0.0,0 STARLINK-3236,1 49750U 21115AC  23058.05472767  .00000419  00000-0  44438-4 0  9992,2 49750  53.2151  77.0059 0001364  92.2786 267.8362 15.08844752 69586,6917.866,95.437,540.674,538.787,0.0
49750.0,STARLINK-3236,PAYLOAD,2023-02-27 04:29:34,15.08854688,0.0001383,53.2152,76.411,94.3691,265.7459,0.00059659,9.223e-05,0.0,0 STARLINK-3236,1 49750U 21115AC  23058.18720637  .00009223  00000-0  59659-3 0  9990,2 49750  53.2152  76.4110 0001383  94.3691 265.7459 15.08854688 69603,6917.835,95.437,540.657,538.744,0.0
49750.0,STARLINK-3236,PAYLOAD,2023-02-27 07:40:21,15.08867111,0.0001414,53.2153,75.8167,96.3582,263.7571,0.0038794,0.00062043,0.0,0 STARLINK-3236,1 49750U 21115AC  23058.31969101  .00062043  00000-0  38794-2 0  9991,2 49750  53.2153  75.8167 0001414  96.3582 263.7571 15.08867111 69625,6917.798,95.436,540.641,538.684,0.0
49750.0,STARLINK-3236,PAYLOAD,2023-02-28 05:55:44,15.08877187,0.0001681,53.2158,71.6525,106.3831,253.7346,0.0014509,0.00022902,0.0,0 STARLINK-3236,1 49750U 21115AC  23059.24703872  .00022902  00000-0  14509-2 0  9993,2 49750  53.2158  71.6525 0001681 106.3831 253.7346 15.08877187 69765,6917.767,95.435,540.795,538.469,0.0
49750.0,STARLINK-3236,PAYLOAD,2023-02-28 10:41:53,15.08879584,0.0001481,53.2155,70.7604,109.3311,250.7841,0.0011002,0.00017284,0.0,0 STARLINK-3236,1 49750U 21115AC  23059.44575272  .00017284  00000-0  11002-2 0  9998,2 49750  53.2155  70.7604 0001481 109.3311 250.7841 15.08879584 68684,6917.759,95.435,540.649,538.6,0.0
49750.0,STARLINK-3236,PAYLOAD,2023-03-01 04:11:09,15.08812342,0.0001011,53.2158,67.4905,98.162,261.9486,-0.00059083,-9.671e-05,0.0,0 STARLINK-3236,1 49750U 21115AC  23060.17441149 -.00009671  00000-0 -59083-3 0  9990,2 49750  53.2158  67.4905 0001011  98.1620 261.9486 15.08812342 69905,6917.965,95.439,540.529,539.131,0.0
